[
  {
    "license_number": "475184955",
    "agent_name": "Sam Abadi",
    "city": "Chicago",
    "zip": "60610",
    "employing_broker": null,
    "photo_url": null,
    "homes_profile_url": null,
    "match_confidence": null,
    "source": "homes.com",
    "scraped_at": "2026-02-13T16:55:55.765Z"
  },
  {
    "license_number": "475186012",
    "agent_name": "Elena Abakumova",
    "city": "Chicago",
    "zip": "60618",
    "employing_broker": null,
    "photo_url": null,
    "homes_profile_url": null,
    "match_confidence": null,
    "source": "homes.com",
    "scraped_at": "2026-02-13T16:56:01.099Z"
  },
  {
    "license_number": "475128197",
    "agent_name": "Aman T Aba Omer",
    "city": "Chicago",
    "zip": "60640",
    "employing_broker": null,
    "photo_url": null,
    "homes_profile_url": null,
    "match_confidence": null,
    "source": "homes.com",
    "scraped_at": "2026-02-13T16:56:06.245Z"
  },
  {
    "license_number": "475212530",
    "agent_name": "Ehab Abbas",
    "city": "Chicago",
    "zip": "60630",
    "employing_broker": null,
    "photo_url": null,
    "homes_profile_url": null,
    "match_confidence": null,
    "source": "homes.com",
    "scraped_at": "2026-02-13T16:56:11.393Z"
  },
  {
    "license_number": "475184721",
    "agent_name": "Feras Abbas",
    "city": "Chicago",
    "zip": "60610",
    "employing_broker": null,
    "photo_url": null,
    "homes_profile_url": null,
    "match_confidence": null,
    "source": "homes.com",
    "scraped_at": "2026-02-13T16:56:16.563Z"
  },
  {
    "license_number": "475216787",
    "agent_name": "Hasan Aijaz Abbasi",
    "city": "Chicago",
    "zip": "60659",
    "employing_broker": null,
    "photo_url": null,
    "homes_profile_url": null,
    "match_confidence": null,
    "source": "homes.com",
    "scraped_at": "2026-02-13T16:56:21.727Z"
  },
  {
    "license_number": "475167105",
    "agent_name": "Sara Abbasi",
    "city": "Chicago",
    "zip": "60645",
    "employing_broker": null,
    "photo_url": null,
    "homes_profile_url": null,
    "match_confidence": null,
    "source": "homes.com",
    "scraped_at": "2026-02-13T16:56:26.926Z"
  },
  {
    "license_number": "475167105",
    "agent_name": "Sara Abbasi",
    "city": "Chicago",
    "zip": "60645",
    "employing_broker": null,
    "photo_url": null,
    "homes_profile_url": null,
    "match_confidence": null,
    "source": "homes.com",
    "scraped_at": "2026-02-13T16:56:32.165Z"
  },
  {
    "license_number": "471021039",
    "agent_name": "William James Abbatacola",
    "city": "Chicago",
    "zip": "60641",
    "employing_broker": null,
    "photo_url": null,
    "homes_profile_url": null,
    "match_confidence": null,
    "source": "homes.com",
    "scraped_at": "2026-02-13T16:56:37.311Z"
  },
  {
    "license_number": "475190160",
    "agent_name": "Eric Frank Abbate",
    "city": "Chicago",
    "zip": "60647",
    "employing_broker": null,
    "photo_url": null,
    "homes_profile_url": null,
    "match_confidence": null,
    "source": "homes.com",
    "scraped_at": "2026-02-13T16:56:42.631Z"
  }
]